     2.100          NAVIGATION                              RINEX VERSION / TYPE
fic2rin                                 08/27/2014 00:13:33 PGM / RUN BY / DATE
                                                            END OF HEADER
 4 14  8 26  1 59 44.0 -.208150595427D-06 -.227373675443D-12  .000000000000D+00
     .300000000000D+01 -.795312500000D+02  .472055377287D-08 -.225943182778D+01
    -.433437526226D-05  .109698548913D-01  .107549130917D-04  .515199216652D+04
     .179984000000D+06  .126659870148D-06  .294411087998D+01 -.800937414169D-07
     .939251375018D+00  .154687500000D+03  .106661072622D+01 -.797068915405D-08
     .142863093678D-11  .100000000000D+01  .180700000000D+04  .000000000000D+00
     .240000000000D+01  .000000000000D+00 -.651925802231D-08  .300000000000D+01
     .172806000000D+06  .400000000000D+01
17 14  8 26  1 59 44.0 -.119186937809D-03 -.272848410532D-11  .000000000000D+00
     .340000000000D+02 -.450625000000D+02  .464662212189D-08  .125405008363D+01
    -.242702662945D-05  .940945546608D-02  .271759927273D-05  .515363479233D+04
     .179984000000D+06 -.150874257088D-06  .195041954388D+01  .186264514923D-07
     .969336275078D+00  .330062500000D+03 -.209687247321D+01 -.847785313661D-08
    -.197865384745D-09  .100000000000D+01  .180700000000D+04  .000000000000D+00
     .240000000000D+01  .000000000000D+00 -.102445483208D-07  .340000000000D+02
     .172806000000D+06  .400000000000D+01
28 14  8 26  1 59 44.0  .379784498364D-03  .261479726760D-11  .000000000000D+00
     .450000000000D+02  .893125000000D+02  .381515891668D-08  .204652697406D+01
     .441633164883D-05  .192393296165D-01  .709109008312D-05  .515367569351D+04
     .179984000000D+06  .232830643654D-06  .925004491293D+00 -.331550836563D-06
     .987247617912D+00  .251125000000D+03 -.170950184240D+01 -.760424531877D-08
     .428946438769D-09  .100000000000D+01  .180700000000D+04  .000000000000D+00
     .240000000000D+01  .000000000000D+00 -.107102096081D-07  .450000000000D+02
     .172806000000D+06  .400000000000D+01
 1 14  8 26  2  0  0.0  .202218070626D-04  .568434188608D-12  .000000000000D+00
     .230000000000D+02 -.767500000000D+02  .427267797419D-08 -.980661063327D+00
    -.394880771637D-05  .343826669268D-02  .112298876047D-04  .515368324852D+04
     .180000000000D+06  .875443220139D-07  .295988841928D+01 -.782310962677D-07
     .961693844740D+00  .161375000000D+03  .384603939658D+00 -.788961434839D-08
    -.828605943335D-10  .100000000000D+01  .180700000000D+04  .000000000000D+00
     .240000000000D+01  .000000000000D+00  .558793544769D-08  .230000000000D+02
     .172806000000D+06  .400000000000D+01
 2 14  8 26  2  0  0.0  .514698680490D-03  .216004991671D-11  .000000000000D+00
     .570000000000D+02 -.603125000000D+02  .489913263997D-08 -.292213109906D+00
    -.302866101265D-05  .137093360536D-01  .105332583189D-04  .515367232513D+04
     .180000000000D+06  .279396772385D-07  .292832287935D+01  .203028321266D-06
     .940234334545D+00  .170687500000D+03 -.239397249168D+01 -.837999191744D-08
    -.717887045734D-10  .100000000000D+01  .180700000000D+04  .000000000000D+00
     .240000000000D+01  .000000000000D+00 -.200234353542D-07  .570000000000D+02
     .172806000000D+06  .400000000000D+01
 5 14  8 26  2  0  0.0 -.345908105373D-03  .352429196937D-11  .000000000000D+00
     .920000000000D+02  .579062500000D+02  .506092509356D-08  .209354804747D+01
     .311806797981D-05  .375190831255D-02  .826269388199D-05  .515366872025D+04
     .180000000000D+06 -.141561031342D-06 -.228674947931D+01  .894069671631D-07
     .947035687929D+00  .214000000000D+03  .316833965589D+00 -.829213111483D-08
     .544308386915D-09  .100000000000D+01  .180700000000D+04  .000000000000D+00
     .340000000000D+01  .000000000000D+00 -.102445483208D-07  .920000000000D+02
     .172806000000D+06  .400000000000D+01
 6 14  8 26  2  0  0.0 -.497512519360D-05 -.454747350886D-12  .000000000000D+00
     .570000000000D+02 -.731562500000D+02  .432410868791D-08  .200422484282D+01
    -.390224158764D-05  .467704492621D-03  .112000852823D-04  .515359636879D+04
     .180000000000D+06 -.447034835815D-07  .295132722372D+01 -.186264514923D-08
     .961614755000D+00  .168125000000D+03  .213792217249D+01 -.785925594098D-08
    -.853606984729D-10  .100000000000D+01  .180700000000D+04  .000000000000D+00
     .240000000000D+01  .000000000000D+00  .465661287308D-08  .570000000000D+02
     .172806000000D+06  .400000000000D+01
 7 14  8 26  2  0  0.0  .384318176657D-03  .432009983342D-11  .000000000000D+00
     .570000000000D+02 -.170312500000D+02  .390873424304D-08 -.154242704636D+01
    -.970438122749D-06  .785913120490D-02  .120140612125D-04  .515361783409D+04
     .180000000000D+06 -.745058059692D-08 -.162997058190D+00 -.186264514923D-06
     .973078004056D+00  .155250000000D+03 -.280137679227D+01 -.758924469393D-08
    -.337514058815D-09  .100000000000D+01  .180700000000D+04  .000000000000D+00
     .240000000000D+01  .000000000000D+00 -.107102096081D-07  .570000000000D+02
     .172806000000D+06  .400000000000D+01
 8 14  8 26  2  0  0.0  .152541324496D-04  .113686837722D-12  .000000000000D+00
     .550000000000D+02 -.656250000000D+00  .334335354981D-08 -.171459673842D+01
    -.169500708580D-06  .145066588884D-01  .124573707581D-04  .515218374443D+04
     .180000000000D+06  .130385160446D-07 -.616282343548D-01 -.236555933952D-06
     .996508129272D+00  .158375000000D+03 -.272511556037D+01 -.725565937019D-08
    -.157506560780D-09  .100000000000D+01  .180700000000D+04  .000000000000D+00
     .240000000000D+01  .000000000000D+00 -.419095158577D-08  .550000000000D+02
     .172806000000D+06  .400000000000D+01
 9 14  8 26  2  0  0.0  .192732550204D-04  .306954461848D-11  .000000000000D+00
     .310000000000D+02 -.295625000000D+02  .497877881469D-08  .109373826277D+01
    -.142306089401D-05  .382166006602D-03  .400096178055D-05  .518101582146D+04
     .180000000000D+06  .707805156708D-07 -.123731886657D+01  .186264514923D-08
     .959393422153D+00  .296218750000D+03 -.271760697826D+01 -.819284126472D-08
    -.329299430929D-09  .100000000000D+01  .180700000000D+04  .000000000000D+00
     .240000000000D+01  .630000000000D+02  .372529029846D-08  .310000000000D+02
     .172806000000D+06  .400000000000D+01
10 14  8 26  2  0  0.0 -.139400828630D-03 -.159161572810D-11  .000000000000D+00
     .125000000000D+03  .590000000000D+02  .509449792057D-08  .228386827532D+01
     .295042991638D-05  .138090435648D-01  .834837555885D-05  .515361429596D+04
     .180000000000D+06 -.141561031342D-06 -.227001825786D+01 -.318512320518D-06
     .941816713052D+00  .208312500000D+03  .876406197630D+00 -.813533886952D-08
     .580381318069D-09  .100000000000D+01  .180700000000D+04  .000000000000D+00
     .340000000000D+01  .000000000000D+00 -.279396772385D-08  .125000000000D+03
     .172806000000D+06  .400000000000D+01
11 14  8 26  2  0  0.0 -.516235362738D-03 -.295585778076D-11  .000000000000D+00
     .470000000000D+02 -.992187500000D+02  .607632453188D-08 -.141240703192D+01
    -.480562448502D-05  .154168155277D-01  .792369246483D-05  .515371060562D+04
     .180000000000D+06  .219792127609D-06  .262942400561D+01  .348314642906D-06
     .891472101894D+00  .185531250000D+03  .132088152991D+01 -.884036823682D-08
    -.278940190407D-09  .100000000000D+01  .180700000000D+04  .000000000000D+00
     .240000000000D+01  .000000000000D+00 -.121071934700D-07  .470000000000D+02
     .172806000000D+06  .400000000000D+01
12 14  8 26  2  0  0.0  .227482058108D-03  .261479726760D-11  .000000000000D+00
     .950000000000D+02  .962812500000D+02  .384230290448D-08 -.199720067238D+01
     .508874654770D-05  .507060135715D-02  .666268169880D-05  .515356086349D+04
     .180000000000D+06 -.614672899246D-07  .900740498383D+00 -.447034835815D-07
     .988131444258D+00  .266906250000D+03  .499353171081D+00 -.776353766822D-08
     .427874965567D-09  .100000000000D+01  .180700000000D+04  .000000000000D+00
     .240000000000D+01  .000000000000D+00 -.121071934700D-07  .950000000000D+02
     .172806000000D+06  .400000000000D+01
13 14  8 26  2  0  0.0 -.348361209035D-04 -.386535248253D-11  .000000000000D+00
     .770000000000D+02 -.370000000000D+02  .459519140817D-08  .777144141139D+00
    -.218488276005D-05  .525771477260D-02  .476278364658D-05  .515377332115D+04
     .180000000000D+06  .279396772385D-07 -.112650178339D+01 -.800937414169D-07
     .976319501363D+00  .294468750000D+03  .232155212779D+01 -.819105547605D-08
    -.417160233541D-09  .100000000000D+01  .180700000000D+04  .000000000000D+00
     .240000000000D+01  .000000000000D+00 -.111758708954D-07  .770000000000D+02
     .172806000000D+06  .400000000000D+01
14 14  8 26  2  0  0.0  .141224823892D-03 -.363797880709D-11  .000000000000D+00
     .660000000000D+02 -.368750000000D+02  .482448667352D-08  .112370745333D+01
    -.192970037460D-05  .788429379463D-02  .517256557941D-05  .515370010567D+04
     .180000000000D+06 -.160187482834D-06 -.115902255031D+01  .558793544769D-07
     .968839627556D+00  .287875000000D+03 -.198734887587D+01 -.836463413487D-08
    -.435732435719D-09  .100000000000D+01  .180700000000D+04  .000000000000D+00
     .340000000000D+01  .000000000000D+00 -.884756445885D-08  .660000000000D+02
     .172806000000D+06  .400000000000D+01
15 14  8 26  2  0  0.0 -.199056230485D-03 -.227373675443D-11  .000000000000D+00
     .840000000000D+02 -.272187500000D+02  .566595029529D-08  .506135886888D+00
    -.134482979774D-05  .644932698924D-02  .335834920406D-05  .515374449539D+04
     .180000000000D+06  .279396772385D-07 -.127407832451D+01  .204890966415D-07
     .935386801883D+00  .296406250000D+03  .274081176581D+00 -.880786688301D-08
    -.361800784741D-09  .100000000000D+01  .180700000000D+04  .000000000000D+00
     .240000000000D+01  .000000000000D+00 -.102445483208D-07  .840000000000D+02
     .172806000000D+06  .400000000000D+01
